OBJECT_NAME,OBJECT_ID,EPOCH,MEAN_MOTION,ECCENTRICITY,INCLINATION,RA_OF_ASC_NODE,ARG_OF_PERICENTER,MEAN_ANOMALY,EPHEMERIS_TYPE,CLASSIFICATION_TYPE,NORAD_CAT_ID,ELEMENT_SET_NO,REV_AT_EPOCH,BSTAR,MEAN_MOTION_DOT,MEAN_MOTION_DDOT
EKRAN 2 DEB,1977-092N,2026-02-28T19:43:02.999136,1.00194280,.00117397,4.4047,275.3911,223.1673,69.9862,0,U,59987,999,6202,0,-.375E-5,0
EKRAN 2 DEB,1977-092P,2026-02-28T19:29:58.741152,1.00879446,.0051158,4.2144,272.9926,64.7840,149.3356,0,U,59988,999,7395,0,.82E-6,0
OPS 9442 (DSCS 2-12) DEB,1978-113E,2026-02-28T20:49:51.401856,0.98456978,.0171916,8.4106,303.1800,82.6766,279.2622,0,U,59989,999,4415,0,-.152E-5,0
OPS 9442 (DSCS 2-12) DEB,1978-113F,2026-03-01T06:40:31.767744,0.98216891,.0151089,8.6384,303.1707,121.0014,60.6682,0,U,59990,999,4403,0,-.42E-6,0
OPS 9442 (DSCS 2-12) DEB,1978-113G,2026-02-15T20:07:36.518304,0.98449708,.0150147,8.3852,304.1665,138.9673,87.8620,0,U,59991,999,4299,0,-.6E-7,0
OPS 9442 (DSCS 2-12) DEB,1978-113H,2026-02-24T00:32:56.500224,0.98332730,.02233219,8.5988,303.7169,91.4559,103.2493,0,U,59992,999,5777,0,-.268E-5,0
VELA 11/12 INTERSTAGE,1970-027D,2026-03-02T19:36:14.923296,0.45892478,.7958559,18.4546,34.8971,284.7422,0.0479,0,U,60002,999,2049,0,-.932E-5,0
ASTRA 1P (SES-24),2024-115A,2026-03-01T04:23:38.710752,1.00268917,.0005009,0.0589,334.1299,349.8668,280.0749,0,U,60086,999,611,0,.101E-5,0
FALCON 9 R/B,2024-115B,2026-02-28T23:22:34.901184,1.44083953,.79719953,27.5757,298.8502,23.8819,358.3978,0,U,60087,999,889,.5270664E-2,.1813E-4,0
GOES 19,2024-119A,2026-03-01T10:22:25.491936,1.00271551,.0000816,0.0254,282.0436,88.2243,229.3523,0,U,60133,999,588,0,-.267E-5,0
ZHONGXING-3A,2024-122A,2026-03-01T07:47:25.355328,1.00269680,.0001688,0.0259,117.6735,307.8431,312.0470,0,U,60179,999,622,0,0,0
TURKSAT 6A,2024-127A,2026-03-01T10:55:37.310016,1.00271534,.0003075,0.0450,220.4912,71.5109,73.1350,0,U,60233,999,593,0,.128E-5,0
FALCON 9 R/B,2024-127B,2026-02-27T19:51:08.241408,1.03907217,.83474075,26.9005,24.9302,326.3445,1.4343,0,U,60234,999,595,.61352716E-2,-.107E-5,0
YZ-1S R/B,2024-048E,2026-03-02T19:33:39.952800,0.47339127,.89700946,17.3875,314.9858,227.8654,358.7073,0,U,60326,999,322,.96515958E-3,-.1475E-4,0
HULIANWAN GAOGUI-02 (HG-02),2024-135A,2026-03-01T06:19:33.779424,1.00271971,.0007819,0.0358,18.5115,322.6194,66.0201,0,U,60327,999,641,0,-.191E-5,0
ASBM-1,2024-143A,2026-02-27T19:24:52.322688,1.50422868,.55662392,62.7757,49.7512,269.0979,30.2165,0,U,60422,999,997,0,-.47E-6,0
ASBM-2,2024-143B,2026-02-26T19:30:03.091392,1.50422616,.55614464,62.7408,49.8631,269.1479,30.2308,0,U,60423,999,994,0,-.52E-6,0
ZHONGXING-4A,2024-151A,2026-03-01T11:12:38.741184,1.00270776,.0001524,1.5926,271.9630,77.3732,96.2707,0,U,60606,999,567,0,-.382E-5,0
HULIANWAN GAOGUI-03 (HG-03),2024-181A,2026-03-01T10:21:55.541376,1.00262537,.0000578,0.0357,19.7125,158.6063,59.2380,0,U,61503,999,574,0,-.258E-5,0
DSN-3 (KIRAMEKI-3),2024-198A,2026-03-01T10:56:38.830272,1.00270463,.0001473,0.0346,260.4493,54.4383,152.5635,0,U,61733,999,484,0,-.269E-5,0
KOREASAT 6A,2024-206A,2026-03-01T11:12:38.741184,1.00271512,.0001107,0.0132,140.8972,178.4573,124.0697,0,U,61910,999,475,0,-.38E-5,0
INTELSAT 33E DEB,2016-053E,2026-02-28T19:12:09.673344,0.99846965,.0037653,1.4537,96.3721,134.2084,226.6649,0,U,61988,999,495,0,-.18E-6,0
INTELSAT 33E DEB,2016-053F,2026-02-27T22:17:09.494304,0.98028512,.0446783,2.2682,114.6919,150.8808,211.8290,0,U,61989,999,477,0,-.28E-5,0
INTELSAT 33E DEB,2016-053G,2026-03-01T01:59:31.081632,1.01394182,.0136569,1.1920,74.9562,292.1093,67.4059,0,U,61990,999,505,0,-.209E-5,0
INTELSAT 33E DEB,2016-053H,2026-02-28T20:15:11.408256,1.02040058,.01240449,1.3933,94.7414,249.5961,109.6650,0,U,61991,999,508,0,.6E-7,0
INTELSAT 33E DEB,2016-053J,2026-03-01T00:18:22.774176,1.00802220,.0054294,1.2847,85.4717,274.4656,85.7050,0,U,61992,999,502,0,-.289E-5,0
INTELSAT 33E DEB,2016-053K,2026-02-28T23:21:44.658720,1.01202673,.0098313,1.1974,75.2147,309.3678,50.7078,0,U,61993,999,504,0,-.281E-5,0
INTELSAT 33E DEB,2016-053L,2026-02-28T11:09:41.336064,1.00503670,.0025584,1.3052,87.2281,209.5067,151.0508,0,U,61994,999,500,0,-.363E-5,0
INTELSAT 33E DEB,2016-053M,2026-02-28T19:34:01.577856,1.01033174,.0054176,1.2651,84.0612,280.2506,79.9328,0,U,61995,999,503,0,.38E-6,0
INTELSAT 33E DEB,2016-053N,2026-02-28T22:01:55.712352,1.00606812,.0055006,1.1651,65.4583,320.4729,40.1849,0,U,61996,999,501,0,-.303E-5,0
INTELSAT 33E DEB,2016-053P,2026-02-28T23:05:37.766688,1.01612215,.0106431,1.2937,87.3362,264.6391,94.8969,0,U,61997,999,506,0,-.308E-5,0
INTELSAT 33E DEB,2016-053Q,2026-02-27T22:04:59.891232,1.00406523,.0030584,1.2755,84.5390,268.4888,91.8494,0,U,61998,999,500,0,-.279E-5,0
INTELSAT 33E DEB,2016-053R,2026-02-28T15:45:10.438848,0.99256359,.0111818,1.2282,76.6238,32.5395,329.0334,0,U,61999,999,494,0,.47E-6,0
INTELSAT 33E DEB,2016-053S,2026-02-13T07:41:12.480576,1.00124863,.01112277,1.3880,95.5702,289.5396,69.2890,0,U,62000,999,484,0,.82E-6,0
INTELSAT 33E DEB,2016-053T,2026-02-28T13:11:08.691360,1.00184301,.00622691,1.1669,63.8579,334.7000,26.0244,0,U,62001,999,499,0,-.24E-6,0
INTELSAT 33E DEB,2016-053V,2026-02-27T20:37:27.026976,1.00409006,.00253336,1.3434,90.2022,244.4295,115.8916,0,U,62003,999,498,0,-.122E-5,0
INTELSAT 33E DEB,2016-053W,2026-02-28T23:23:03.359616,1.02631264,.0208509,2.2889,119.9951,265.4929,92.2762,0,U,62004,999,510,0,-.82E-6,0
INTELSAT 33E DEB,2016-053X,2026-03-01T05:48:12.517056,1.04574086,.0297156,1.4726,100.3164,238.8447,118.7390,0,U,62005,999,518,0,-.151E-5,0
OPTUS-X (ADS-01),2024-212A,2026-03-01T12:10:12.531936,1.00272523,.0001144,0.0390,276.8267,57.5930,163.8278,0,U,62006,999,468,0,-.162E-5,0
FALCON 9 R/B,2024-212B,2026-03-01T05:45:09.616032,1.58892775,.7802117,18.3185,96.1049,44.9732,356.3933,0,U,62007,999,740,.96136E-3,-.133E-5,0
GSAT-N2 (GSAT-20),2024-214A,2026-03-01T09:20:23.938944,1.00272414,.000137,0.0923,265.9190,320.0763,141.2704,0,U,62028,999,481,0,-.38E-6,0
TJS-13,2024-227A,2026-02-27T17:41:02.899104,2.00607154,.70021691,63.7019,51.9993,269.4853,17.1541,0,U,62188,999,905,0,.464E-5,0
PROBA-3 CSC,2024-233A,2026-02-28T09:00:29.790720,1.22074600,.80163667,59.6075,106.6254,202.3596,78.2698,0,U,62256,999,549,.69067509E-2,-.171E-5,0
PSLV R/B,2024-233B,2026-03-01T11:01:46.003872,1.20450597,.8033369,59.7012,107.3348,202.0078,78.9906,0,U,62257,999,543,-.22331E-1,-.268E-5,0
PROBA-3 OSC,2024-233C,2026-02-24T06:43:27.465600,1.22073552,.80166767,59.5960,106.9684,202.2455,78.6049,0,U,62258,999,543,-.15721469E-2,-.282E-5,0
SXM-9,2024-234A,2026-03-01T03:46:38.623008,1.00268782,.0004179,0.0162,123.8279,183.7481,182.8954,0,U,62259,999,449,0,0,0
TJS-12,2024-246A,2026-03-01T12:03:38.784672,1.00268001,.0002031,0.9173,291.5340,15.6532,179.4664,0,U,62374,999,448,0,-.251E-5,0
ASTRANIS UTILITYSAT,2024-252A,2026-02-05T08:47:56.130432,1.00326217,.7515191,9.0086,332.5475,238.8028,28.0513,0,U,62454,999,410,0,-.141E-5,0
NUVIEW ALPHA,2024-252B,2026-03-01T10:20:10.707936,1.00270988,.0002665,0.0558,30.6390,323.1200,237.3805,0,U,62455,999,274,0,-.233E-5,0
AGILA,2024-252C,2026-03-01T11:51:28.308096,1.00270426,.0001442,0.0264,147.4283,202.6029,139.2396,0,U,62456,999,408,0,-.201E-5,0
NUVIEW BRAVO,2024-252D,2026-03-01T10:20:10.707936,1.00270115,.0000657,0.0654,174.7468,197.8946,218.4729,0,U,62457,999,271,0,-.233E-5,0
THURAYA-4,2025-001A,2026-03-01T10:56:07.262304,1.00272608,.0000224,0.0192,98.4431,184.7496,84.3777,0,U,62483,999,309,0,.121E-5,0
FALCON 9 R/B,2025-001B,2026-02-28T14:07:50.878848,1.41762200,.7894293,25.2770,232.1532,325.5826,2.2467,0,U,62484,999,596,.15028E-2,-.258E-5,0
SHIJIAN-25 (SJ-25),2025-002A,2026-03-01T18:48:31.652352,1.00257456,.0047,4.8591,61.7887,166.0919,340.9314,0,U,62485,999,428,0,-.367E-5,0
BREEZE-M DEB,2008-003D,2026-02-25T09:45:22.629888,1.01905322,.07951967,11.1985,27.3192,184.5329,174.7885,0,U,62722,999,1163,0,-.367E-5,0
TJS-14,2025-017A,2026-03-01T07:23:35.140704,1.00268392,.0002381,1.0351,289.9057,45.3290,313.1343,0,U,62804,999,418,0,.96E-6,0
NVS-02 (IRNSS-1K),2025-020A,2026-02-28T15:34:01.752096,2.17707374,.7349367,20.8439,299.1206,77.2527,349.0950,0,U,62850,999,861,.69979938E-3,.793E-5,0
SPAINSAT NG I,2025-021A,2026-03-01T07:26:42.341856,1.00270739,.0000172,0.0288,136.4439,157.7689,5.5265,0,U,62852,999,290,0,0,0
FALCON 9 R/B,2025-021B,2026-02-22T13:57:17.027712,1.11100880,.8263517,24.8711,278.2219,286.5973,4.9233,0,U,62853,999,431,.25326E-3,-.143E-5,0
QZS-6 (MICHIBIKI-6),2025-023A,2026-03-01T12:12:21.341376,1.00270649,.0001948,0.0448,296.8308,33.2713,102.7935,0,U,62876,999,387,0,-.251E-5,0
ZHONGXING-10R,2025-036A,2026-03-01T09:32:45.255264,1.00269598,.0001125,0.0390,243.0488,331.1783,198.6559,0,U,63075,999,386,0,-.37E-5,0
TJS-15,2025-045A,2026-03-01T18:21:05.754816,1.00268224,.0007161,0.2121,88.1706,258.8640,182.0895,0,U,63157,999,368,0,-.281E-5,0
TIANLIAN 2-04,2025-062A,2026-03-01T04:16:00.625728,1.00271608,.0035348,4.6520,275.9137,9.1315,17.9626,0,U,63361,999,352,0,-.157E-5,0
TJS-16,2025-064A,2026-03-01T18:39:34.054272,1.00272136,.0005286,0.8210,81.9604,254.7389,263.3177,0,U,63397,999,331,0,-.123E-5,0
TJS-17,2025-073A,2026-03-01T18:26:58.554528,1.00271390,.000459,0.7864,83.5734,245.3825,271.8219,0,U,63524,999,321,0,-.88E-6,0
TIANLIAN 2-05,2025-084A,2026-03-01T07:24:20.068704,1.00272356,.0003144,4.7245,281.0072,74.8482,294.6813,0,U,63662,999,330,0,.102E-5,0
TJS-19,2025-097A,2026-03-01T18:18:17.954784,1.00263391,.0003217,3.4701,315.7716,341.8309,277.6479,0,U,63924,999,306,0,-.296E-5,0
CHINASAT 3B,2025-106A,2026-02-28T21:50:03.833376,1.00270904,.0002258,0.0161,119.1978,192.6648,341.6466,0,U,64062,999,297,0,-.64E-6,0
SXM-10,2025-122A,2026-03-01T04:07:14.668320,1.00272008,.0002726,0.0210,63.5079,296.8735,104.2121,0,U,64290,999,260,0,-.35E-6,0
INTELSAT 33E DEB,2016-053Y,2026-02-28T07:53:36.914208,1.08355391,.0626367,1.1415,37.9109,339.8957,18.6314,0,U,64394,999,526,0,-.157E-5,0
INTELSAT 33E DEB,2016-053Z,2026-02-28T22:11:24.011808,0.99834180,.008846,2.1259,116.4960,202.0686,157.7487,0,U,64395,999,484,0,-.2E-5,0
